[{"OBJECT_NAME":"STARLINK-34682","OBJECT_ID":"2025-152N","EPOCH":"2026-03-09T13:41:51.387360","MEAN_MOTION":15.0571118,"ECCENTRICITY":0.0001428,"INCLINATION":97.6011,"RA_OF_ASC_NODE":285.4583,"ARG_OF_PERICENTER":105.6053,"MEAN_ANOMALY":254.5332,"EPHEMERIS_TYPE":0,"CLASSIFICATION_TYPE":"U","NORAD_CAT_ID":64854,"ELEMENT_SET_NO":999,"REV_AT_EPOCH":3540,"BSTAR":0.0016039,"MEAN_MOTION_DOT":0.00023196,"MEAN_MOTION_DDOT":0},{"OBJECT_NAME":"PSLV DEB","OBJECT_ID":"2001-049CG","EPOCH":"2026-03-09T17:57:10.653408","MEAN_MOTION":15.10779615,"ECCENTRICITY":0.00259315,"INCLINATION":97.9011,"RA_OF_ASC_NODE":146.9612,"ARG_OF_PERICENTER":307.1678,"MEAN_ANOMALY":170.9563,"EPHEMERIS_TYPE":0,"CLASSIFICATION_TYPE":"U","NORAD_CAT_ID":27136,"ELEMENT_SET_NO":999,"REV_AT_EPOCH":32989,"BSTAR":0.00047952924,"MEAN_MOTION_DOT":7.956e-5,"MEAN_MOTION_DDOT":0}]
